[{"OBJECT_NAME":"XINGYUN-2 02","OBJECT_ID":"2020-028B","EPOCH":"2026-03-10T00:08:18.521088","MEAN_MOTION":15.11086378,"ECCENTRICITY":0.0009258,"INCLINATION":97.5114,"RA_OF_ASC_NODE":76.7595,"ARG_OF_PERICENTER":249.9829,"MEAN_ANOMALY":110.0404,"EPHEMERIS_TYPE":0,"CLASSIFICATION_TYPE":"U","NORAD_CAT_ID":45603,"ELEMENT_SET_NO":999,"REV_AT_EPOCH":31985,"BSTAR":0.00013296102,"MEAN_MOTION_DOT":2.163e-5,"MEAN_MOTION_DDOT":0},{"OBJECT_NAME":"STARLINK-4764","OBJECT_ID":"2022-114K","EPOCH":"2026-03-09T21:49:20.035488","MEAN_MOTION":15.08862308,"ECCENTRICITY":0.00014152,"INCLINATION":53.2176,"RA_OF_ASC_NODE":303.2006,"ARG_OF_PERICENTER":69.746,"MEAN_ANOMALY":290.3684,"EPHEMERIS_TYPE":0,"CLASSIFICATION_TYPE":"U","NORAD_CAT_ID":53827,"ELEMENT_SET_NO":999,"REV_AT_EPOCH":19286,"BSTAR":0.00032708649,"MEAN_MOTION_DOT":4.925e-5,"MEAN_MOTION_DDOT":0}]
